CTC2_L_00485015-05
1 54333U 24545UM  26070.40848380  .00000000  00000+0  00000-0 0  9997
2 54333  55.0000 168.0000 0000000   0.0000 162.4615 13.76872657    13
CTC2_L_00485015-06
1 54334U 26874FL  26070.40848380  .00000000  00000+0  00000-0 0  9995
2 54334  55.0000 168.0000 0000000   0.0000 190.1538 13.76872657    16
CTC2_L_00485015-07
1 54335U 24738CF  26070.40848380  .00000000  00000+0  00000-0 0  9993
2 54335  55.0000 168.0000 0000000   0.0000 217.8462 13.76872657    10
CTC2_L_00485015-08
1 54336U 26337KA  26070.40848380  .00000000  00000+0  00000-0 0  9991
2 54336  55.0000 168.0000 0000000   0.0000 245.5385 13.76872657    13
CTC2_L_00485015-09
1 54337U 23416MB  26070.40848380  .00000000  00000+0  00000-0 0  9997
2 54337  55.0000 168.0000 0000000   0.0000 273.2308 13.76872657    17
CTC2_L_00485015-10
1 54338U 24663BY  26070.40848380  .00000000  00000+0  00000-0 0  9993
2 54338  55.0000 168.0000 0000000   0.0000 300.9231 13.76872657    11
CTC2_L_00485015-11
1 54339U 24321UI  26070.40848380  .00000000  00000+0  00000-0 0  9995
2 54339  55.0000 168.0000 0000000   0.0000 328.6154 13.76872657    13
CTC2_L_00485015-12
1 54340U 22349LW  26070.40848380  .00000000  00000+0  00000-0 0  9995
2 54340  55.0000 168.0000 0000000   0.0000 356.3077 13.76872657    17
CTC2_L_00485015-13
1 54341U 26278XZ  26070.40848380  .00000000  00000+0  00000-0 0  9991
2 54341  55.0000 168.0000 0000000   0.0000  24.0000 13.76872657    13
CTC2_L_00485016-01
1 54342U 25172VW  26070.40848380  .00000000  00000+0  00000-0 0  9994
2 54342  55.0000 180.0000 0000000   0.0000  55.3846 13.76872657    13
CTC2_L_00485016-02
1 54343U 23187DY  26070.40848380  .00000000  00000+0  00000-0 0  9999
2 54343  55.0000 180.0000 0000000   0.0000  83.0769 13.76872657    16
CTC2_L_00485016-03
1 54344U 26266HZ  26070.40848380  .00000000  00000+0  00000-0 0  9991
2 54344  55.0000 180.0000 0000000   0.0000 110.7692 13.76872657    10
CTC2_L_00485016-04
1 54345U 25551UJ  26070.40848380  .00000000  00000+0  00000-0 0  9998
2 54345  55.0000 180.0000 0000000   0.0000 138.4615 13.76872657    13
CTC2_L_00485016-05
1 54346U 26150AO  26070.40848380  .00000000  00000+0  00000-0 0  9995
2 54346  55.0000 180.0000 0000000   0.0000 166.1538 13.76872657    16
CTC2_L_00485016-06
1 54347U 25464MV  26070.40848380  .00000000  00000+0  00000-0 0  9993
2 54347  55.0000 180.0000 0000000   0.0000 193.8462 13.76872657    10
CTC2_L_00485016-07
1 54348U 23434CI  26070.40848380  .00000000  00000+0  00000-0 0  9999
2 54348  55.0000 180.0000 0000000   0.0000 221.5385 13.76872657    14
CTC2_L_00485016-08
1 54349U 24138UA  26070.40848380  .00000000  00000+0  00000-0 0  9992
2 54349  55.0000 180.0000 0000000   0.0000 249.2308 13.76872657    17
CTC2_L_00485016-09
1 54350U 24212EG  26070.40848380  .00000000  00000+0  00000-0 0  9997
2 54350  55.0000 180.0000 0000000   0.0000 276.9231 13.76872657    11
CTC2_L_00485016-10
1 54351U 25189ZG  26070.40848380  .00000000  00000+0  00000-0 0  9992
2 54351  55.0000 180.0000 0000000   0.0000 304.6154 13.76872657    15
CTC2_L_00485016-11
1 54352U 24814PU  26070.40848380  .00000000  00000+0  00000-0 0  9997
2 54352  55.0000 180.0000 0000000   0.0000 332.3077 13.76872657    18
CTC2_L_00485016-12
1 54353U 22060WT  26070.40848380  .00000000  00000+0  00000-0 0  9999
2 54353  55.0000 180.0000 0000000   0.0000   0.0000 13.76872657    14
CTC2_L_00485016-13
1 54354U 22154ZI  26070.40848380  .00000000  00000+0  00000-0 0  9994
2 54354  55.0000 180.0000 0000000   0.0000  27.6923 13.76872657    14
CTC2_L_00485017-01
1 54355U 24236HF  26070.40848380  .00000000  00000+0  00000-0 0  9998
2 54355  55.0000 192.0000 0000000   0.0000  59.0769 13.76872657    15
CTC2_L_00485017-02
1 54356U 26619MK  26070.40848380  .00000000  00000+0  00000-0 0  9996
2 54356  55.0000 192.0000 0000000   0.0000  86.7692 13.76872657    18
CTC2_L_00485017-03
1 54357U 26179JD  26070.40848380  .00000000  00000+0  00000-0 0  9998
2 54357  55.0000 192.0000 0000000   0.0000 114.4615 13.76872657    13
CTC2_L_00485017-04
1 54358U 26584WV  26070.40848380  .00000000  00000+0  00000-0 0  9999
2 54358  55.0000 192.0000 0000000   0.0000 142.1538 13.76872657    16
CTC2_L_00485017-05
1 54359U 23292EH  26070.40848380  .00000000  00000+0  00000-0 0  9993
2 54359  55.0000 192.0000 0000000   0.0000 169.8462 13.76872657    19
CTC2_L_00485017-06
1 54360U 26661PU  26070.40848380  .00000000  00000+0  00000-0 0  9998
2 54360  55.0000 192.0000 0000000   0.0000 197.5385 13.76872657    13
CTC2_L_00485017-07
1 54361U 22533MP  26070.40848380  .00000000  00000+0  00000-0 0  9993
2 54361  55.0000 192.0000 0000000   0.0000 225.2308 13.76872657    18
CTC2_L_00485017-08
1 54362U 24257QG  26070.40848380  .00000000  00000+0  00000-0 0  9999
2 54362  55.0000 192.0000 0000000   0.0000 252.9231 13.76872657    11
CTC2_L_00485017-09
1 54363U 24819YA  26070.40848380  .00000000  00000+0  00000-0 0  9994
2 54363  55.0000 192.0000 0000000   0.0000 280.6154 13.76872657    14
CTC2_L_00485017-10
1 54364U 25506VP  26070.40848380  .00000000  00000+0  00000-0 0  9999
2 54364  55.0000 192.0000 0000000   0.0000 308.3077 13.76872657    17
CTC2_L_00485017-11
1 54365U 23013ZY  26070.40848380  .00000000  00000+0  00000-0 0  9991
2 54365  55.0000 192.0000 0000000   0.0000 336.0000 13.76872657    12
CTC2_L_00485017-12
1 54366U 24350QS  26070.40848380  .00000000  00000+0  00000-0 0  9997
2 54366  55.0000 192.0000 0000000   0.0000   3.6923 13.76872657    14
CTC2_L_00485017-13
1 54367U 22998RM  26070.40848380  .00000000  00000+0  00000-0 0  9994
2 54367  55.0000 192.0000 0000000   0.0000  31.3846 13.76872657    17
CTC2_L_00485018-01
1 54368U 25781KD  26070.40848380  .00000000  00000+0  00000-0 0  9998
2 54368  55.0000 204.0000 0000000   0.0000  62.7692 13.76872657    19
CTC2_L_00485018-02
1 54369U 24911ZR  26070.40848380  .00000000  00000+0  00000-0 0  9993
2 54369  55.0000 204.0000 0000000   0.0000  90.4615 13.76872657    13
CTC2_L_00485018-03
1 54370U 25795QZ  26070.40848380  .00000000  00000+0  00000-0 0  9996
2 54370  55.0000 204.0000 0000000   0.0000 118.1538 13.76872657    17
CTC2_L_00485018-04
1 54371U 25558DY  26070.40848380  .00000000  00000+0  00000-0 0  9994
2 54371  55.0000 204.0000 0000000   0.0000 145.8462 13.76872657    11
CTC2_L_00485018-05
1 54372U 23633KJ  26070.40848380  .00000000  00000+0  00000-0 0  9997
2 54372  55.0000 204.0000 0000000   0.0000 173.5385 13.76872657    14
CTC2_L_00485018-06
1 54373U 22206LM  26070.40848380  .00000000  00000+0  00000-0 0  9993
2 54373  55.0000 204.0000 0000000   0.0000 201.2308 13.76872657    19
CTC2_L_00485018-07
1 54374U 22493LS  26070.40848380  .00000000  00000+0  00000-0 0  9992
2 54374  55.0000 204.0000 0000000   0.0000 228.9231 13.76872657    11
CTC2_L_00485018-08
1 54375U 26379ON  26070.40848380  .00000000  00000+0  00000-0 0  9990
2 54375  55.0000 204.0000 0000000   0.0000 256.6154 13.76872657    14
CTC2_L_00485018-09
1 54376U 24444KB  26070.40848380  .00000000  00000+0  00000-0 0  9992
2 54376  55.0000 204.0000 0000000   0.0000 284.3077 13.76872657    17
CTC2_L_00485018-10
1 54377U 26033JW  26070.40848380  .00000000  00000+0  00000-0 0  9999
2 54377  55.0000 204.0000 0000000   0.0000 312.0000 13.76872657    13
CTC2_L_00485018-11
1 54378U 24393IW  26070.40848380  .00000000  00000+0  00000-0 0  9997
2 54378  55.0000 204.0000 0000000   0.0000 339.6923 13.76872657    13
CTC2_L_00485018-12
1 54379U 23866QK  26070.40848380  .00000000  00000+0  00000-0 0  9992
2 54379  55.0000 204.0000 0000000   0.0000   7.3846 13.76872657    17
CTC2_L_00485018-13
1 54380U 26477PU  26070.40848380  .00000000  00000+0  00000-0 0  9995
2 54380  55.0000 204.0000 0000000   0.0000  35.0769 13.76872657    11
CTC2_L_00485019-01
1 54381U 25414GP  26070.40848380  .00000000  00000+0  00000-0 0  9996
2 54381  55.0000 216.0000 0000000   0.0000  66.4615 13.76872657    13
CTC2_L_00485019-02
1 54382U 22546RV  26070.40848380  .00000000  00000+0  00000-0 0  9990
2 54382  55.0000 216.0000 0000000   0.0000  94.1538 13.76872657    16
CTC2_L_00485019-03
1 54383U 26953PG  26070.40848380  .00000000  00000+0  00000-0 0  9997
2 54383  55.0000 216.0000 0000000   0.0000 121.8462 13.76872657    11
CTC2_L_00485019-04
1 54384U 25731DX  26070.40848380  .00000000  00000+0  00000-0 0  9991
2 54384  55.0000 216.0000 0000000   0.0000 149.5385 13.76872657    13
CTC2_L_00485019-05
1 54385U 22628EX  26070.40848380  .00000000  00000+0  00000-0 0  9994
2 54385  55.0000 216.0000 0000000   0.0000 177.2308 13.76872657    17
CTC2_L_00485019-06
1 54386U 24955YH  26070.40848380  .00000000  00000+0  00000-0 0  9990
2 54386  55.0000 216.0000 0000000   0.0000 204.9231 13.76872657    11
CTC2_L_00485019-07
1 54387U 23563WM  26070.40848380  .00000000  00000+0  00000-0 0  9995
2 54387  55.0000 216.0000 0000000   0.0000 232.6154 13.76872657    14
CTC2_L_00485019-08
1 54388U 25307JG  26070.40848380  .00000000  00000+0  00000-0 0  9994
2 54388  55.0000 216.0000 0000000   0.0000 260.3077 13.76872657    17
CTC2_L_00485019-09
1 54389U 23406ML  26070.40848380  .00000000  00000+0  00000-0 0  9993
2 54389  55.0000 216.0000 0000000   0.0000 288.0000 13.76872657    11
CTC2_L_00485019-10
1 54390U 22324XG  26070.40848380  .00000000  00000+0  00000-0 0  9993
2 54390  55.0000 216.0000 0000000   0.0000 315.6923 13.76872657    14
CTC2_L_00485019-11
1 54391U 26981ZS  26070.40848380  .00000000  00000+0  00000-0 0  9997
2 54391  55.0000 216.0000 0000000   0.0000 343.3846 13.76872657    17
CTC2_L_00485019-12
1 54392U 25715HT  26070.40848380  .00000000  00000+0  00000-0 0  9992
2 54392  55.0000 216.0000 0000000   0.0000  11.0769 13.76872657    11
CTC2_L_00485019-13
1 54393U 22968MA  26070.40848380  .00000000  00000+0  00000-0 0  9990
2 54393  55.0000 216.0000 0000000   0.0000  38.7692 13.76872657    13
CTC2_L_00485020-01
1 54394U 26949SI  26070.40848380  .00000000  00000+0  00000-0 0  9994
2 54394  55.0000 228.0000 0000000   0.0000  70.1538 13.76872657    16
